Unnamed: 0,name,address,lat,lon
1,,4250 N 137TH ST BROOKFIELD WI 53005,43.09535,-88.0818
2,,305 N CALHOUN RD BROOKFIELD WI 53005,43.03342,-88.1288
3,,2100 N CALHOUN RD BROOKFIELD WI 53005,43.05798,-88.12513
4,,2400 PILGRIM SQUARE DR BROOKFIELD WI 53005,43.06239,-88.1053
5,,16185 BURLEIGH PL BROOKFIELD WI 53005,43.07781,-88.11364
6,,12621 W HAMPTON AVE BUTLER WI 53007,43.10435,-88.06893
7,,500 GENESEE ST DELAFIELD WI 53018,43.05911,-88.40381
8,,W302N1254 MAPLE AVE DELAFIELD WI 53018,43.06435,-88.35343
9,,31275 COUNTY ROAD K HARTLAND WI 53029,43.10662,-88.16519
10,,N35W29288 NORTH SHORE DR HARTLAND WI 53029,43.08314,-88.32868
11,,210 COTTONWOOD AVE HARTLAND WI 53029,43.1032,-88.34773
12,,W314N7624 STATE ROAD 83 HARTLAND WI 53029,43.15685,-88.3703
13,,18000 W GREENFIELD AVE BROOKFIELD WI 53045,43.01798,-88.13807
14,,2250 N LYNETTE LN BROOKFIELD WI 53045,43.06041,-88.17746
15,,645 JANACEK RD BROOKFIELD WI 53045,43.03834,-88.15735
16,,20275 DAVIDSON RD BROOKFIELD WI 53045,43.02404,-88.1658
17,,20399 W MAIN ST LANNON WI 53046,43.14985,-88.1634
18,,N56W16300 SILVER SPRING DR MENOMONEE FALLS WI 53051,43.12011,-88.1139
19,,N44W32950 WATERTOWN PLANK RD NASHOTAH WI 53058,43.09949,-88.40196
20,,35328 PABST RD OCONOMOWOC WI 53066,43.08392,-88.4486
21,,200 W SOUTH ST OCONOMOWOC WI 53066,43.11081,-88.5022
22,,641 E FOREST ST OCONOMOWOC WI 53066,43.10042,-88.48929
23,,220 W WISCONSIN AVE OCONOMOWOC WI 53066,43.11207,-88.5016
24,,440 COOLIDGE ST OCONOMOWOC WI 53066,43.11886,-88.49285
25,,W380N6931 N LAKE RD OCONOMOWOC WI 53066,43.14517,-88.50247
26,,W335N7107 STONE BANK RD OCONOMOWOC WI 53066,43.14784,-88.41176
27,,N14W29489 SILVERNAIL RD PEWAUKEE WI 53072,43.04834,-88.33356
28,,N54W26455 LISBON RD PEWAUKEE WI 53072,43.11646,-88.27351
29,,N31W23320 GREEN RD PEWAUKEE WI 53072,43.07762,-88.21257
30,,N14W27995 SILVERNAIL RD PEWAUKEE WI 53072,43.04873,-88.30271
31,,W240N3065 PEWAUKEE RD PEWAUKEE WI 53072,43.08228,-88.22546
32,,235 HICKORY ST PEWAUKEE WI 53072,43.08273,-88.25954
33,,800 MAIN ST PEWAUKEE WI 53072,43.07253,-88.25448
34,,W234N8676 WOODSIDE RD LISBON WI 53089,43.17482,-88.21123
35,,N64W23760 MAIN ST SUSSEX WI 53089,43.13406,-88.21946
36,,W230S9185 NEVINS ST BIG BEND WI 53103,42.87774,-88.20943
37,,118 S MAIN ST DOUSMAN WI 53118,43.01312,-88.47251
38,,W360S3337 STATE ROAD 67 DOUSMAN WI 53118,42.98432,-88.46534
39,,820 E MAIN ST EAGLE WI 53119,42.87944,-88.46151
40,,820 E MAIN ST EAGLE WI 53119,42.87944,-88.46151
41,,13600 JUNEAU BLVD ELM GROVE WI 53122,43.04667,-88.08284
42,,17651 W SMALL RD NEW BERLIN WI 53146,42.93077,-88.13462
43,,17770 W CLEVELAND AVE NEW BERLIN WI 53146,42.99336,-88.13611
44,,W322S9230 BEULAH RD MUKWONAGO WI 53149,42.87731,-88.38933
45,,W182S8200 RACINE AVE MUSKEGO WI 53150,42.89542,-88.14202
46,,2600 S SUNNYSLOPE RD NEW BERLIN WI 53151,42.99635,-88.08757
47,,14750 W CLEVELAND AVE NEW BERLIN WI 53151,42.99718,-88.09731
48,,12700 W HOWARD AVE NEW BERLIN WI 53151,42.97438,-88.07243
49,,15105 W LIBRARY LN NEW BERLIN WI 53151,42.97912,-88.10129
50,,3805 S CASPER DR NEW BERLIN WI 53151,42.97517,-88.11977
51,,130 N HARRISON ST NORTH PRAIRIE WI 53153,42.93527,-88.40316
52,,500 E SUMMIT AVE WALES WI 53183,43.01671,-88.37041
53,,413 WISCONSIN AVE WAUKESHA WI 53186,43.00938,-88.23498
54,,300 SENTRY DR WAUKESHA WI 53186,43.00232,-88.25096
55,,2301 SPRINGDALE RD WAUKESHA WI 53186,43.03224,-88.18515
56,,810 W COLLEGE AVE WAUKESHA WI 53186,43.00322,-88.24523
57,,1714 PEARL ST WAUKESHA WI 53186,43.00828,-88.19698
58,,1120 BAXTER ST WAUKESHA WI 53186,43.01648,-88.22535
59,,311 WALTON AVE WAUKESHA WI 53186,42.99924,-88.2395
60,,225 S HARTWELL AVE WAUKESHA WI 53186,42.99971,-88.22063
61,,1150 BAXTER ST WAUKESHA WI 53186,43.01812,-88.22395
62,,1900 AVIATION DR WAUKESHA WI 53188,43.02887,-88.23684
63,,3051 SUMMIT AVE WAUKESHA WI 53188,43.02008,-88.28208
64,,444 N MORELAND BLVD WAUKESHA WI 53188,43.0191,-88.25197
65,,2400 LES PAUL PKWY WAUKESHA WI 53189,43.00156,-88.29192
66,,5100 N 91ST ST MILWAUKEE WI 53225,43.11094,-88.02515
67,,12021 W FLORIST AVE MILWAUKEE WI 53225,43.12578,-88.06149
68,,9025 W LAWRENCE AVE MILWAUKEE WI 53225,43.09769,-88.02538
69,,10825 W VILLARD AVE MILWAUKEE WI 53225,43.11129,-88.04781
70,,8718 W THURSTON AVE MILWAUKEE WI 53225,43.12195,-88.02224
71,,37100 DELAFIELD RD SUMMIT WI 53066,43.06286,-88.4821
72,,W249S8910 CENTER DR BIG BEND WI 53103,42.88253,-88.24688
73,,W250S3567 CENTER RD WAUKESHA WI 53189,42.98005,-88.24869
74,,W250S3567 CENTER RD WAUKESHA WI 53189,42.98005,-88.24869
75,,N67W28343 SUSSEX RD MERTON WI 53056,43.14101,-88.30977
76,,S43W31391 HIGHWAY 83 GENESEE DEPOT WI 53127,42.96548,-88.37299
