Unnamed: 0,name,address,lat,lon
1,,8090 CHURCH RD ARPIN WI 54410,44.54037,-90.03495
2,,6190 COUNTY RD N ARPIN WI 54410,44.54259,-90.02795
3,,5988 1ST ST AUBURNDALE WI 54412,44.63128,-90.02002
4,,5988 1ST ST AUBURNDALE WI 54412,44.63128,-90.02002
5,,1596 STATE HIGHWAY 80 BABCOCK WI 54413,44.30318,-90.10988
6,,11133 MAIN ST HEWITT WI 54441,44.64881,-90.10042
7,,10905 FALCON RD MARSHFIELD WI 54449,44.6421,-90.2594
8,,9301 MILL CREEK DR MARSHFIELD WI 54449,44.61212,-90.18113
9,,8478 RICHFIELD DR MARSHFIELD WI 54449,44.56947,-90.13979
10,,10970 COUNTY RD N MARSHFIELD WI 54449,44.55648,-90.2627
11,,3720 COUNTY ROAD P MILLADORE WI 54454,44.61231,-89.90716
12,,9285 2ND ST MILLADORE WI 54454,44.58321,-89.91846
13,,2000 COUNTY ROAD G NEKOOSA WI 54457,44.31254,-89.92903
14,,416 CRESTVIEW LN NEKOOSA WI 54457,44.31187,-89.9173
15,,5688 ACCOLA RD PITTSVILLE WI 54466,44.45169,-90.27699
16,,10108 COUNTY ROAD V PITTSVILLE WI 54466,44.40991,-90.21826
17,,5291 3RD AVE PITTSVILLE WI 54466,44.43862,-90.12662
18,,8210 MAIN ST PITTSVILLE WI 54466,44.43902,-90.12563
19,,3730 TOWN HALL ROAD PITTSVILLE WI 54466,44.38119,-90.1124
20,,431 LETENDRE AVE PORT EDWARDS WI 54469,44.34331,-89.86344
21,,6432 2ND AVE RUDOLPH WI 54475,44.47984,-89.76426
22,,1580 MAIN ST RUDOLPH WI 54475,44.49623,-89.80196
23,,6554 CAMERON AVE VESPER WI 54489,44.48345,-89.96738
24,,6554 CAMERON AVE VESPER WI 54489,44.48345,-89.96738
25,,451 KAHOUN RD WISCONSIN RAPIDS WI 54494,44.4192,-89.78561
26,,311 LINCOLN ST WISCONSIN RAPIDS WI 54494,44.38648,-89.82017
27,,2410 48TH ST S WISCONSIN RAPIDS WI 54494,44.37273,-89.76612
28,,1116 STATE ROAD 73 S WISCONSIN RAPIDS WI 54494,44.30604,-89.81638
29,,3678 TOWN HALL RD WISCONSIN RAPIDS WI 54495,44.46755,-89.90485
30,,2466C COUNTY ROAD D WISCONSIN RAPIDS WI 54495,44.33409,-90.03731
31,,3540 COUNTY ROAD Q WISCONSIN RAPIDS WI 54495,44.40961,-89.89702
32,,220 3RD AVE S WISCONSIN RAPIDS WI 54495,44.39331,-89.83134
33,,11133 MAIN ST HEWITT WI 54441,44.64881,-90.10042
